{"type": "FeatureCollection", "features": [ {"type": "Feature", "properties": {"norad_id": 29973, "name": "FENGYUN 1C DEB", "group": "fengyun-1c-debris", "lat": 53.68345169396012, "lon": -30.445263043727053, "alt_km": 880.5310911049137, "timestamp": "2025-12-07T03:52:32.769850+00:00", "meta": {"OBJECT_NAME": "FENGYUN 1C DEB", "OBJECT_ID": "1999-025KX", "EPOCH": "2025-12-06T11:16:26.853600", "MEAN_MOTION": 14.06516627, "ECCENTRICITY": 0.00590499, "INCLINATION": 98.8423, "RA_OF_ASC_NODE": 341.1056, "ARG_OF_PERICENTER": 166.5067, "MEAN_ANOMALY": 348.19, "EPHEMERIS_TYPE": 0, "CLASSIFICATION_TYPE": "U", "NORAD_CAT_ID": 29973, "ELEMENT_SET_NO": 999, "REV_AT_EPOCH": 96630, "BSTAR": 0.0012101499, "MEAN_MOTION_DOT": 1.992e-05, "MEAN_MOTION_DDOT": 0}, "tle": {"line1": "1 29973U 99025KX  25340.46975525  .00001992  00000+0  12101-2 0  9999", "line2": "2 29973  98.8423 341.1056 0059049 166.5067 348.1900 14.06516627966301"}}, "geometry": {"type": "Point", "coordinates": [-30.445263043727053, 53.68345169396012]}}, {"type": "Feature", "properties": {"norad_id": 29974, "name": "FENGYUN 1C DEB", "group": "fengyun-1c-debris", "lat": 70.20839549286531, "lon": -88.84820947009376, "alt_km": 802.5247618753956, "timestamp": "2025-12-07T03:52:32.769860+00:00", "meta": {"OBJECT_NAME": "FENGYUN 1C DEB", "OBJECT_ID": "1999-025KY", "EPOCH": "2025-12-05T18:01:04.240128", "MEAN_MOTION": 14.14801671, "ECCENTRICITY": 0.00471953, "INCLINATION": 98.8948, "RA_OF_ASC_NODE": 63.9496, "ARG_OF_PERICENTER": 101.868, "MEAN_ANOMALY": 24.3945, "EPHEMERIS_TYPE": 0, "CLASSIFICATION_TYPE": "U", "NORAD_CAT_ID": 29974, "ELEMENT_SET_NO": 999, "REV_AT_EPOCH": 96826, "BSTAR": 0.0022974767, "MEAN_MOTION_DOT": 4.436e-05, "MEAN_MOTION_DDOT": 0}, "tle": {"line1": "1 29974U 99025KY  25339.75074352  .00004436  00000+0  22975-2 0  9994", "line2": "2 29974  98.8948  63.9496 0047195 101.8680  24.3945 14.14801671968267"}}, "geometry": {"type": "Point", "coordinates": [-88.84820947009376, 70.20839549286531]}}, {"type": "Feature", "properties": {"norad_id": 29975, "name": "FENGYUN 1C DEB", "group": "fengyun-1c-debris", "lat": 77.77963098962827, "lon": -27.328162779190585, "alt_km": 842.9677456023728, "timestamp": "2025-12-07T03:52:32.769871+00:00", "meta": {"OBJECT_NAME": "FENGYUN 1C DEB", "OBJECT_ID": "1999-025KZ", "EPOCH": "2025-12-06T16:00:48.212352", "MEAN_MOTION": 13.98023981, "ECCENTRICITY": 0.01139884, "INCLINATION": 99.3406, "RA_OF_ASC_NODE": 21.6275, "ARG_OF_PERICENTER": 30.2796, "MEAN_ANOMALY": 84.55, "EPHEMERIS_TYPE": 0, "CLASSIFICATION_TYPE": "U", "NORAD_CAT_ID": 29975, "ELEMENT_SET_NO": 999, "REV_AT_EPOCH": 96352, "BSTAR": 0.0001517545, "MEAN_MOTION_DOT": 1.82e-06, "MEAN_MOTION_DDOT": 0}, "tle": {"line1": "1 29975U 99025KZ  25340.66722468  .00000182  00000+0  15175-3 0  9994", "line2": "2 29975  99.3406  21.6275 0113988  30.2796  84.5500 13.98023981963526"}}, "geometry": {"type": "Point", "coordinates": [-27.328162779190585, 77.77963098962827]}}, {"type": "Feature", "properties": {"norad_id": 29976, "name": "FENGYUN 1C DEB", "group": "fengyun-1c-debris", "lat": -73.74222061577318, "lon": 126.04556119599245, "alt_km": 712.9491225128104, "timestamp": "2025-12-07T03:52:32.769882+00:00", "meta": {"OBJECT_NAME": "FENGYUN 1C DEB", "OBJECT_ID": "1999-025LA", "EPOCH": "2025-12-06T13:32:31.314912", "MEAN_MOTION": 13.98100023, "ECCENTRICITY": 0.02675349, "INCLINATION": 98.9176, "RA_OF_ASC_NODE": 338.0393, "ARG_OF_PERICENTER": 256.6793, "MEAN_ANOMALY": 235.2268, "EPHEMERIS_TYPE": 0, "CLASSIFICATION_TYPE": "U", "NORAD_CAT_ID": 29976, "ELEMENT_SET_NO": 999, "REV_AT_EPOCH": 96250, "BSTAR": 0.00038082534, "MEAN_MOTION_DOT": 6.89e-06, "MEAN_MOTION_DDOT": 0}, "tle": {"line1": "1 29976U 99025LA  25340.56425133  .00000689  00000+0  38083-3 0  9998", "line2": "2 29976  98.9176 338.0393 0267534 256.6793 235.2268 13.98100023962506"}}, "geometry": {"type": "Point", "coordinates": [126.04556119599245, -73.74222061577318]}}, {"type": "Feature", "properties": {"norad_id": 29977, "name": "FENGYUN 1C DEB", "group": "fengyun-1c-debris", "lat": 48.55917358032805, "lon": -166.0110685732332, "alt_km": 939.0193816953488, "timestamp": "2025-12-07T03:52:32.769892+00:00", "meta": {"OBJECT_NAME": "FENGYUN 1C DEB", "OBJECT_ID": "1999-025LB", "EPOCH": "2025-12-06T14:06:14.647392", "MEAN_MOTION": 14.0504496, "ECCENTRICITY": 0.0128564, "INCLINATION": 98.3948, "RA_OF_ASC_NODE": 203.0859, "ARG_OF_PERICENTER": 274.4868, "MEAN_ANOMALY": 112.9738, "EPHEMERIS_TYPE": 0, "CLASSIFICATION_TYPE": "U", "NORAD_CAT_ID": 29977, "ELEMENT_SET_NO": 999, "REV_AT_EPOCH": 96274, "BSTAR": 0.00231244, "MEAN_MOTION_DOT": 3.973e-05, "MEAN_MOTION_DDOT": 0}, "tle": {"line1": "1 29977U 99025LB  25340.58766953  .00003973  00000+0  23124-2 0  9997", "line2": "2 29977  98.3948 203.0859 0128564 274.4868 112.9738 14.05044960962741"}}, "geometry": {"type": "Point", "coordinates": [-166.0110685732332, 48.55917358032805]}}, {"type": "Feature", "properties": {"norad_id": 29978, "name": "FENGYUN 1C DEB", "group": "fengyun-1c-debris", "lat": -44.789714477304734, "lon": 40.815911555316035, "alt_km": 935.9808539900505, "timestamp": "2025-12-07T03:52:32.769903+00:00", "meta": {"OBJECT_NAME": "FENGYUN 1C DEB", "OBJECT_ID": "1999-025LC", "EPOCH": "2025-12-06T14:56:08.628576", "MEAN_MOTION": 13.9590595, "ECCENTRICITY": 0.00768805, "INCLINATION": 99.0624, "RA_OF_ASC_NODE": 31.1696, "ARG_OF_PERICENTER": 68.8331, "MEAN_ANOMALY": 58.5688, "EPHEMERIS_TYPE": 0, "CLASSIFICATION_TYPE": "U", "NORAD_CAT_ID": 29978, "ELEMENT_SET_NO": 999, "REV_AT_EPOCH": 96231, "BSTAR": 0.0001386033, "MEAN_MOTION_DOT": 1.51e-06, "MEAN_MOTION_DDOT": 0}, "tle": {"line1": "1 29978U 99025LC  25340.62232209  .00000151  00000+0  13860-3 0  9997", "line2": "2 29978  99.0624  31.1696 0076880  68.8331  58.5688 13.95905950962318"}}, "geometry": {"type": "Point", "coordinates": [40.815911555316035, -44.789714477304734]}}, {"type": "Feature", "properties": {"norad_id": 29979, "name": "FENGYUN 1C DEB", "group": "fengyun-1c-debris", "lat": 81.20474619385739, "lon": -67.48717106184176, "alt_km": 799.7123497119601, "timestamp": "2025-12-07T03:52:32.769923+00:00", "meta": {"OBJECT_NAME": "FENGYUN 1C DEB", "OBJECT_ID": "1999-025LD", "EPOCH": "2025-12-06T14:33:08.011872", "MEAN_MOTION": 14.25943577, "ECCENTRICITY": 0.01072384, "INCLINATION": 98.3707, "RA_OF_ASC_NODE": 4.0885, "ARG_OF_PERICENTER": 180.9301, "MEAN_ANOMALY": 299.4458, "EPHEMERIS_TYPE": 0, "CLASSIFICATION_TYPE": "U", "NORAD_CAT_ID": 29979, "ELEMENT_SET_NO": 999, "REV_AT_EPOCH": 97986, "BSTAR": 0.00079636587, "MEAN_MOTION_DOT": 1.976e-05, "MEAN_MOTION_DDOT": 0}, "tle": {"line1": "1 29979U 99025LD  25340.60634273  .00001976  00000+0  79637-3 0  9993", "line2": "2 29979  98.3707   4.0885 0107238 180.9301 299.4458 14.25943577979867"}}, "geometry": {"type": "Point", "coordinates": [-67.48717106184176, 81.20474619385739]}}, {"type": "Feature", "properties": {"norad_id": 29980, "name": "FENGYUN 1C DEB", "group": "fengyun-1c-debris", "lat": 51.45983917833423, "lon": 139.73375702303207, "alt_km": 920.721547958141, "timestamp": "2025-12-07T03:52:32.769933+00:00", "meta": {"OBJECT_NAME": "FENGYUN 1C DEB", "OBJECT_ID": "1999-025LE", "EPOCH": "2025-12-06T10:41:19.566240", "MEAN_MOTION": 14.06308989, "ECCENTRICITY": 0.00867359, "INCLINATION": 98.5514, "RA_OF_ASC_NODE": 149.9449, "ARG_OF_PERICENTER": 265.8295, "MEAN_ANOMALY": 122.4816, "EPHEMERIS_TYPE": 0, "CLASSIFICATION_TYPE": "U", "NORAD_CAT_ID": 29980, "ELEMENT_SET_NO": 999, "REV_AT_EPOCH": 96904, "BSTAR": 0.00024948899, "MEAN_MOTION_DOT": 3.84e-06, "MEAN_MOTION_DDOT": 0}, "tle": {"line1": "1 29980U 99025LE  25340.44536535  .00000384  00000+0  24949-3 0  9997", "line2": "2 29980  98.5514 149.9449 0086735 265.8295 122.4816 14.06308989969048"}}, "geometry": {"type": "Point", "coordinates": [139.73375702303207, 51.45983917833423]}}, {"type": "Feature", "properties": {"norad_id": 29982, "name": "FENGYUN 1C DEB", "group": "fengyun-1c-debris", "lat": -36.36908399461579, "lon": 168.62656378510954, "alt_km": 595.4591050951876, "timestamp": "2025-12-07T03:52:32.769944+00:00", "meta": {"OBJECT_NAME": "FENGYUN 1C DEB", "OBJECT_ID": "1999-025LG", "EPOCH": "2025-12-06T11:47:03.601824", "MEAN_MOTION": 14.66805148, "ECCENTRICITY": 0.0122154, "INCLINATION": 99.4014, "RA_OF_ASC_NODE": 160.8503, "ARG_OF_PERICENTER": 307.3899, "MEAN_ANOMALY": 76.9202, "EPHEMERIS_TYPE": 0, "CLASSIFICATION_TYPE": "U", "NORAD_CAT_ID": 29982, "ELEMENT_SET_NO": 999, "REV_AT_EPOCH": 192, "BSTAR": 0.0011187922, "MEAN_MOTION_DOT": 6.914e-05, "MEAN_MOTION_DDOT": 0}, "tle": {"line1": "1 29982U 99025LG  25340.49101391  .00006914  00000+0  11188-2 0  9997", "line2": "2 29982  99.4014 160.8503 0122154 307.3899  76.9202 14.66805148  1927"}}, "geometry": {"type": "Point", "coordinates": [168.62656378510954, -36.36908399461579]}}, {"type": "Feature", "properties": {"norad_id": 29985, "name": "FENGYUN 1C DEB", "group": "fengyun-1c-debris", "lat": -81.23678134121877, "lon": 80.41330072809711, "alt_km": 851.4849777303516, "timestamp": "2025-12-07T03:52:32.769954+00:00", "meta": {"OBJECT_NAME": "FENGYUN 1C DEB", "OBJECT_ID": "1999-025LK", "EPOCH": "2025-12-06T15:16:07.855392", "MEAN_MOTION": 14.1032215, "ECCENTRICITY": 0.00278481, "INCLINATION": 98.7108, "RA_OF_ASC_NODE": 355.8878, "ARG_OF_PERICENTER": 226.7349, "MEAN_ANOMALY": 258.4651, "EPHEMERIS_TYPE": 0, "CLASSIFICATION_TYPE": "U", "NORAD_CAT_ID": 29985, "ELEMENT_SET_NO": 999, "REV_AT_EPOCH": 97262, "BSTAR": 0.00012308041, "MEAN_MOTION_DOT": 1.76e-06, "MEAN_MOTION_DDOT": 0}, "tle": {"line1": "1 29985U 99025LK  25340.63620203  .00000176  00000+0  12308-3 0  9994", "line2": "2 29985  98.7108 355.8878 0027848 226.7349 258.4651 14.10322150972620"}}, "geometry": {"type": "Point", "coordinates": [80.41330072809711, -81.23678134121877]}}]}